{
  "type": "FeatureCollection",
  "features": [
    {
      "type": "Feature",
      "properties": {
        "Building ID": "A",
        "Name": "Church Common Room",
        "Property Owner": "Heritage Presbyterian Church",
        "Address": "1400 E 2nd St, Benicia, CA 94510",
        "Link": "https://www.hpcbenicia.org/"
      },
      "geometry": {
        "type": "Polygon",
        "coordinates": [
          [
            [-122.1521741625049, 38.05420065243217],
            [-122.15227138150226, 38.05404153697697],
            [-122.15212889697007, 38.05398617181015],
            [-122.15202342308723, 38.05413916428006],
            [-122.1521741625049, 38.05420065243217]
          ]
        ]
      }
    },
    {
      "type": "Feature",
      "properties": {
        "Name": "Church Main Room",
        "Property Owner": "Heritage Presbyterian Church",
        "Address": "1400 E 2nd St, Benicia, CA 94510",
        "Building ID": "B",
        "Link": "https://www.hpcbenicia.org/"
      },
      "geometry": {
        "type": "Polygon",
        "coordinates": [
          [
            [-122.15246906310193, 38.05414372558704],
            [-122.15256431321848, 38.053995520167604],
            [-122.15236543097485, 38.05391691717131],
            [-122.15226941885754, 38.05406392270609],
            [-122.15246906310193, 38.05414372558704]
          ]
        ]
      }
    },
    {
      "type": "Feature",
      "properties": {
        "Name": "Swenson Community Garden",
        "Property Owner": "Heritage Presbyterian Church",
        "Address": "1400 E 2nd St, Benicia, CA 94510",
        "Building ID": "C",
        "Link": "https://www.hpcbenicia.org/"
      },
      "geometry": {
        "type": "Polygon",
        "coordinates": [
          [
            [-122.15260400182888, 38.05396753113183],
            [-122.1527011356541, 38.05383125640867],
            [-122.15250481588096, 38.05374345872542],
            [-122.15240631397394, 38.053880810882674],
            [-122.15260400182888, 38.05396753113183]
          ]
        ]
      }
    },
    {
      "type": "Feature",
      "properties": {
        "Name": "Benicia Cat Clinic",
        "Property Owner": "Benicia Cat Clinic",
        "Address": "1410 E 2nd St, Benicia, CA 94510",
        "Building ID": "D",
        "Link": "https://www.hpcbenicia.org/"
      },
      "geometry": {
        "type": "Polygon",
        "coordinates": [
          [
            [-122.15199084904054, 38.054760046302306],
            [-122.15204812621931, 38.0546532273336],
            [-122.15185338381133, 38.054587711622275],
            [-122.15184072254037, 38.05460812594413],
            [-122.15180334164472, 38.05459578240115],
            [-122.15175571114875, 38.054680762905036],
            [-122.15199084904054, 38.054760046302306]
          ]
        ]
      }
    }
  ]
}
