{"type":"FeatureCollection","features":[{"type":"Feature","properties":{"Tree ID":1,"Tree Type":"Eucalyptus","Notes":"Will be cut down and replaced with another tree in the coming months!"},"geometry":{"coordinates":[-122.15279831162839,38.053753195057226],"type":"Point"}},{"type":"Feature","properties":{"Tree ID":2,"Tree Type":"Eucalyptus","Notes":"Will be cut down and replaced with another tree in the coming months!"},"geometry":{"coordinates":[-122.15275812965176,38.05368219658797],"type":"Point"}}]}